OBJECT_NAME,OBJECT_ID,EPOCH,MEAN_MOTION,ECCENTRICITY,INCLINATION,RA_OF_ASC_NODE,ARG_OF_PERICENTER,MEAN_ANOMALY,EPHEMERIS_TYPE,CLASSIFICATION_TYPE,NORAD_CAT_ID,ELEMENT_SET_NO,REV_AT_EPOCH,BSTAR,MEAN_MOTION_DOT,MEAN_MOTION_DDOT
AAUSAT 3,2013-009B,2026-05-14T01:28:47.754912,14.39895412,.00104861,98.3701,318.6340,319.7765,40.2647,0,U,39087,999,69226,.14338394E-3,.408E-5,0
STRAND-1,2013-009E,2026-05-14T00:15:26.246016,14.37142218,.00081281,98.3916,315.0879,341.2705,18.8182,0,U,39090,999,69215,.72578373E-4,.173E-5,0
BRITE-AUSTRIA,2013-009F,2026-05-13T10:50:27.342240,14.36527680,.00098989,98.3988,313.7488,350.9654,9.1353,0,U,39091,999,69206,.49497909E-4,.103E-5,0
UNIBRITE,2013-009G,2026-05-14T05:27:01.388160,14.36399099,.00087121,98.4026,314.6077,345.9129,14.1813,0,U,39092,999,69211,.55941642E-4,.121E-5,0
AIST-2 (RS43),2013-015D,2026-05-14T07:28:33.536064,15.25912671,.00203323,64.8706,8.0692,245.8109,114.0897,0,U,39133,999,71873,.1439759E-3,.3516E-4,0
GAOFEN-1,2013-018A,2026-05-14T07:33:24.952896,14.76537661,.00174725,97.9105,207.0685,20.2238,339.9661,0,U,39150,999,70324,.77719225E-4,.492E-5,0
NEE-01 PEGASO,2013-018B,2026-05-13T08:40:10.227072,14.93483981,.00112806,98.1178,276.3748,279.5915,80.4029,0,U,39151,999,70550,.14717258E-3,.1488E-4,0
TURKSAT-3USAT,2013-018C,2026-05-14T05:50:51.347904,14.96197267,.0011601,97.7910,225.2185,208.2980,151.7612,0,U,39152,999,70601,.177698E-3,.1946E-4,0
CUBEBUG-1 (CAPITAN BETO),2013-018D,2026-05-13T09:57:25.574976,14.97076677,.00105117,98.1631,291.8216,263.1591,96.8434,0,U,39153,999,70586,.10884937E-3,.1192E-4,0
PROBA-V,2013-021A,2026-05-13T12:56:05.623872,14.23589391,.0003214,98.3571,113.8602,222.2044,137.8888,0,U,39159,999,67618,.36399186E-4,.42E-6,0
ESTCUBE 1,2013-021C,2026-05-13T14:38:49.416288,14.81290429,.00095863,97.7314,189.0085,123.4227,236.7905,0,U,39161,999,69990,.12944094E-3,.96E-5,0
ARIRANG-5 (KOMPSAT-5),2013-042A,2026-05-14T05:55:18.335136,15.04488060,.00019618,97.6220,321.4240,235.0304,125.0738,0,U,39227,999,69875,.46295143E-4,.587E-5,0
GONETS-M 5,2013-048A,2026-05-14T07:21:00.253152,12.42890643,.00157901,82.4862,4.5075,289.3698,70.5674,0,U,39249,999,57467,-.30789669E-3,-.33E-6,0
GONETS-M 7,2013-048C,2026-05-14T06:28:33.358656,12.42913103,.00166162,82.4930,7.4343,290.7404,69.1895,0,U,39251,999,57462,-.9338209E-3,-.12E-5,0
FENGYUN 3C,2013-052A,2026-05-14T07:58:41.367936,14.15746813,.00156808,98.4964,109.7662,118.4582,241.8174,0,U,39260,999,65377,.48648282E-4,.54E-6,0
CASSIOPE,2013-055A,2026-05-14T06:39:05.057568,15.22630740,.03010127,80.9125,107.8068,176.0717,184.2991,0,U,39265,999,66250,.27411818E-3,.24075E-3,-.617937E-6
APRIZESAT 7,2013-066A,2026-05-14T06:36:02.357856,14.91483642,.0034971,97.7690,87.9889,326.0229,33.8750,0,U,39416,999,67617,.99603093E-4,.95E-5,0
ZACUBE-1 (TSHEPISOSAT),2013-066B,2026-05-14T03:26:34.626912,15.00915790,.00417167,97.8119,96.2956,7.6658,352.5194,0,U,39417,999,67562,.24077366E-3,.3059E-4,0
APRIZESAT 8,2013-066K,2026-05-14T07:23:54.562560,14.87576255,.00469834,97.8204,82.2555,38.9613,321.4973,0,U,39425,999,67463,.84739333E-4,.728E-5,0
CINEMA-3 (KHUSAT-2),2013-066L,2026-05-14T05:32:21.297984,14.78216545,.00891678,97.8419,47.3102,323.2225,36.2889,0,U,39426,999,66943,.13006712E-3,.951E-5,0
TRITON-1,2013-066M,2026-05-14T07:49:18.003648,14.81553095,.00900761,97.8267,44.9038,345.8433,14.0257,0,U,39427,999,66907,.23477689E-3,.1919E-4,0
DELFI-N3XT,2013-066N,2026-05-14T07:23:47.542560,14.94684418,.00739531,97.8346,54.6598,320.6626,38.9235,0,U,39428,999,66956,.42553728E-3,.481E-4,0
GOMX-1,2013-066Q,2026-05-14T06:33:41.453280,14.69319713,.01285338,97.6514,336.8752,185.7789,174.1943,0,U,39430,999,66493,.16276721E-3,.1039E-4,0
BRITE-PL1 (LEM),2013-066R,2026-05-14T06:33:42.647328,14.51326015,.01915055,97.7921,249.0484,116.6139,245.4818,0,U,39431,999,65901,.11829459E-3,.551E-5,0
ICUBE-1,2013-066S,2026-05-13T22:47:27.561984,15.24924206,.0019059,97.5681,119.2186,92.2874,268.0545,0,U,39432,999,67919,.36119E-3,.8966E-4,0
VELOX-PII,2013-066Y,2026-05-13T09:14:34.044864,14.92879353,.005474,97.8730,84.7213,97.9631,262.7805,0,U,39438,999,67264,.15711339E-3,.1615E-4,0
CUBEBUG-2 (LO-74),2013-066AA,2026-05-14T07:10:12.670464,14.93496311,.00589026,97.8892,83.1463,138.5094,222.0619,0,U,39440,999,67193,.1540214E-3,.1615E-4,0
NEE-02 KRYSAOR,2013-066AB,2026-05-14T06:49:10.881408,14.86486357,.00661677,97.8883,73.7481,179.5622,180.5664,0,U,39441,999,67116,.1167708E-3,.1015E-4,0
FUNCUBE-1 (AO-73),2013-066AE,2026-05-14T05:51:08.608032,15.09034476,.00352124,97.8260,104.9971,321.9795,37.8948,0,U,39444,999,67454,.31442881E-3,.4978E-4,0
HINCUBE,2013-066AF,2026-05-13T20:21:42.269760,15.07839790,.00323088,97.7950,101.8725,330.6778,29.2635,0,U,39445,999,67435,.33642725E-3,.5147E-4,0
UWE-3,2013-066AG,2026-05-13T09:19:01.572096,14.96721930,.0050799,97.8680,89.2422,75.9697,284.7165,0,U,39446,999,67237,.18156966E-3,.2066E-4,0
SMDC ONE 2.4,2013-072H,2026-05-14T06:41:11.835744,15.17522517,.01399965,120.4883,221.2444,342.3269,17.2967,0,U,39469,999,11268,.24897133E-3,.6071E-4,0
CP8 (IPEX),2013-072K,2026-05-14T03:46:32.840256,15.07671126,.01595952,120.4634,169.2279,325.7447,33.3414,0,U,39471,999,11010,.23047741E-3,.4348E-4,0
COSMOS 2488 (RODNIK-S 7),2013-076A,2026-05-14T05:30:30.140064,12.42904528,.00199904,82.4863,189.8507,166.1391,194.0241,0,U,39483,999,56167,.18637623E-3,.36E-6,0
COSMOS 2489 (RODNIK-S 8),2013-076B,2026-05-14T06:49:41.009952,12.42878921,.00218451,82.4900,191.1839,166.2072,193.9609,0,U,39484,999,56173,-.46774534E-3,-.55E-6,0
COSMOS 2490 (RODNIK-S 9),2013-076C,2026-05-14T06:09:07.032096,12.42876404,.0021622,82.4847,189.2840,181.8647,178.2356,0,U,39485,999,56166,-.29159868E-3,-.31E-6,0
AIST-1 (RS41),2013-078C,2026-05-14T05:58:31.286208,14.95972421,.001769,82.4141,303.7549,35.3922,324.8470,0,U,39492,999,67017,.71455516E-4,.829E-5,0
KAZEOSAT 1,2014-024A,2026-05-14T07:12:51.199776,14.42065543,.00016334,98.3214,207.5885,92.7854,267.3523,0,U,39731,999,63367,.30868212E-4,.59E-6,0
COSMOS 2496 (RODNIK-S 10),2014-028A,2026-05-14T07:03:57.170016,12.42877089,.0020485,82.4422,129.9607,149.5942,210.6330,0,U,39761,999,54330,.11396874E-3,.26E-6,0
COSMOS 2497 (RODNIK-S 11),2014-028B,2026-05-14T06:28:58.443168,12.42892803,.00211642,82.4471,131.6527,144.8295,215.4186,0,U,39762,999,54330,-.19369272E-4,.7E-7,0
COSMOS 2498 (RODNIK-S 12),2014-028C,2026-05-14T07:56:00.708000,12.42979311,.00218873,82.4430,130.1166,144.4628,215.7914,0,U,39763,999,54334,.10808909E-3,.25E-6,0
COSMOS 2499 (RS47),2014-028E,2026-05-14T08:30:45.044064,12.82902617,.02325427,82.4474,275.2577,81.1743,281.5613,0,U,39765,999,56068,-.62705266E-4,-.4E-7,0
HODOYOSHI-4,2014-033B,2026-05-14T06:41:13.656192,14.88046464,.00251024,97.5460,320.7405,59.9012,300.4689,0,U,40011,999,64376,.12663437E-3,.1118E-4,0
UNISAT-6,2014-033C,2026-05-14T07:28:58.361376,14.88039339,.00453168,97.7839,287.6335,178.4604,181.6760,0,U,40012,999,64112,.22910488E-3,.2088E-4,0
DEIMOS-2,2014-033D,2026-05-14T06:51:41.101632,14.93630260,.00026295,97.5884,9.9603,80.2608,279.8909,0,U,40013,999,63266,.12228613E-3,.1237E-4,0
BUGSAT-1 (TITA),2014-033E,2026-05-14T07:03:49.745664,15.15220862,.0026762,98.0415,224.8737,297.7325,62.1192,0,U,40014,999,65070,.1714134E-3,.3171E-4,0
SAUDISAT 4,2014-033G,2026-05-14T07:16:44.809824,14.79492176,.00448161,97.7538,281.6196,181.8162,178.2894,0,U,40016,999,64106,.68455016E-4,.468E-5,0
APRIZESAT 9,2014-033J,2026-05-14T06:28:55.439904,14.74172632,.00650546,97.9010,268.3069,310.1319,49.4201,0,U,40018,999,63856,.4920094E-4,.282E-5,0
BRITE-CA1 (TORONTO),2014-033L,2026-05-14T06:27:19.928160,14.72628840,.00791945,97.9690,263.8325,26.4750,334.0470,0,U,40020,999,63722,.74869307E-4,.447E-5,0
DUCHIFAT-1,2014-033M,2026-05-14T02:47:00.107808,15.58428307,.0006023,98.0509,188.6735,183.9716,176.1492,0,U,40021,999,65043,.83581933E-3,.63959E-3,0
NANOSATC-BR1,2014-033Q,2026-05-14T00:28:56.455968,15.30336377,.00018416,98.0752,163.4085,319.0154,41.0946,0,U,40024,999,64875,.39351381E-3,.11466E-3,0
QB50P1,2014-033R,2026-05-14T06:25:48.849600,15.17712502,.00082231,98.0978,143.0499,354.3347,5.7791,0,U,40025,999,64788,.26836725E-3,.5339E-4,0
DTUSAT-2,2014-033W,2026-05-14T05:14:16.723968,15.14554811,.00077817,98.0863,129.8030,4.8197,355.3107,0,U,40030,999,64754,.24883204E-3,.4516E-4,0
QB50P2,2014-033Y,2026-05-13T22:50:06.303840,15.14702636,.0005788,98.0752,128.7150,298.4534,61.6112,0,U,40032,999,64748,.22865E-3,.416E-4,0
PERSEUS-M1,2014-033AF,2026-05-13T09:06:01.692000,14.95509627,.00128449,97.9628,76.9475,57.4952,302.7508,0,U,40039,999,64543,.12396723E-3,.1314E-4,0
POLYITAN-1,2014-033AJ,2026-05-14T00:52:25.747104,15.32040868,.00054074,98.0970,157.0987,261.3207,98.7420,0,U,40042,999,64836,.38431678E-3,.11811E-3,0
TIGRISAT,2014-033AK,2026-05-14T07:00:45.120096,14.85011355,.00493859,97.7791,285.0925,184.2099,175.8708,0,U,40043,999,64059,.17037989E-3,.143E-4,0
AISAT,2014-034B,2026-05-14T06:24:41.818752,15.08142763,.00087654,98.2418,44.2190,350.2579,9.8476,0,U,40054,999,64209,.41007703E-3,.6268E-4,0
CANX-4,2014-034C,2026-05-14T02:32:04.964064,14.81198704,.00139401,98.3168,8.1615,117.8576,242.4050,0,U,40055,999,63948,.78859402E-4,.557E-5,0
CANX-5,2014-034D,2026-05-14T02:30:23.574528,14.81215717,.00139405,98.3170,8.2017,118.0670,242.1953,0,U,40056,999,63029,.78789866E-4,.557E-5,0
VELOX-I,2014-034E,2026-05-14T06:03:57.467808,14.97549259,.00081073,98.2562,37.3359,30.1546,330.0139,0,U,40057,999,64152,.2617877E-3,.2992E-4,0
GONETS-M 10,2014-036C,2026-05-14T06:18:59.707584,12.42944652,.00212334,82.5112,328.7529,214.4101,145.5605,0,U,40063,999,53803,.26126431E-3,.46E-6,0
METEOR-M 2,2014-037A,2026-05-14T06:54:31.161888,14.21452034,.00065712,98.5093,111.2308,126.5493,233.6291,0,U,40069,999,61450,.93597278E-4,.163E-5,0
DX1,2014-037C,2026-05-14T05:53:02.223168,14.89876193,.00080422,98.3843,93.8952,33.0346,327.1371,0,U,40071,999,64105,.16043142E-3,.148E-4,0
UKUBE-1,2014-037F,2026-05-14T01:09:41.224320,15.12984313,.00003897,98.4242,133.7511,72.2002,287.9269,0,U,40074,999,64339,.27869454E-3,.484E-4,0
